     2.11           N: GPS NAV DATA                         RINEX VERSION / TYPE
teqc  2018Dec12     gpsops              20220201 01:04:09UTCPGM / RUN BY / DATE
Linux 2.6.32-573.12.1.x86_64|x86_64|gcc -static|Linux 64|=+ COMMENT
CHPI                                    MARKER NAME         COMMENT
41609M003                               MARKER NUMBER       COMMENT
4164613.9484 -4162456.9866 -2445028.7316                    COMMENT
                                                            COMMENT
This data is provided as a public service by NASA/JPL.      COMMENT
No warranty is expressed or implied regarding suitability   COMMENT
for use.  For further information, contact:                 COMMENT
Dave Stowers, NASA/JPL m/s 238-600                          COMMENT
4800 Oak Grove Drive, Pasadena CA 91109 USA                 COMMENT
                                                            END OF HEADER
 1 22  1 31  0  0  0.0 4.437277093530D-04-9.663381206337D-12 0.000000000000D+00
    1.330000000000D+02-5.875000000000D+00 4.266249134972D-09 4.496702816579D-01
   -1.695007085800D-07 1.132251543459D-02-2.179294824600D-07 5.153672657013D+03
    8.640000000000D+04-4.284083843231D-08-1.659497299718D+00 9.872019290924D-08
    9.864721747771D-01 3.936875000000D+02 8.832101023430D-01-8.497853969727D-09
   -1.725071856167D-10 1.000000000000D+00 2.195000000000D+03 0.000000000000D+00
    2.000000000000D+00 0.000000000000D+00 5.122274160385D-09 1.330000000000D+02
    7.921800000000D+04 4.000000000000D+00
 3 22  1 31  0  0  0.0-1.001018099487D-04-1.614353095647D-11 0.000000000000D+00
    6.700000000000D+01-1.501562500000D+02 4.005523989009D-09-7.121857025132D-01
   -7.914379239082D-06 3.858628915623D-03 8.072704076767D-06 5.153698701859D+03
    8.640000000000D+04 9.313225746155D-09-6.239028067076D-01 1.005828380585D-07
    9.726141156590D-01 2.292812500000D+02 9.687945828459D-01-7.909972339241D-09
   -2.353669468352D-10 1.000000000000D+00 2.195000000000D+03 0.000000000000D+00
    2.800000000000D+00 0.000000000000D+00 1.862645149231D-09 6.700000000000D+01
    7.921800000000D+04 4.000000000000D+00
 4 22  1 31  0  0  0.0-1.922869123518D-04 2.046363078989D-12 0.000000000000D+00
    1.340000000000D+02-3.593750000000D+00 4.376253717105D-09 2.252074037409D+00
   -1.564621925354D-07 1.684690010734D-03 1.080892980099D-05 5.153658643723D+03
    8.640000000000D+04-4.097819328308D-08 4.568595263073D-01-1.862645149231D-08
    9.613279060231D-01 1.717187500000D+02-3.082332250162D+00-7.791395971488D-09
    6.757424330990D-10 1.000000000000D+00 2.195000000000D+03 0.000000000000D+00
    2.000000000000D+00 0.000000000000D+00-4.190951585770D-09 3.900000000000D+02
    7.921800000000D+04 4.000000000000D+00
 6 22  1 31  0  0  0.0 1.866081729531D-04 1.148237060988D-11 0.000000000000D+00
    1.050000000000D+02-2.050000000000D+01 4.270535027783D-09 8.010994715000D-01
   -1.193955540657D-06 2.657187287696D-03-5.643814802170D-07 5.153657636642D+03
    8.640000000000D+04-3.725290298462D-08-1.667771214737D+00-9.872019290924D-08
    9.858537788242D-01 4.035625000000D+02-9.805670810805D-01-8.361062557530D-09
   -1.296482575132D-10 1.000000000000D+00 2.195000000000D+03 0.000000000000D+00
    2.000000000000D+00 0.000000000000D+00 3.725290298462D-09 1.050000000000D+02
    7.921800000000D+04 4.000000000000D+00
 7 22  1 30 23 59 44.0 3.064763732255D-04 3.183231456205D-12 0.000000000000D+00
    6.200000000000D+01 7.500000000000D-01 5.366294956296D-09-2.169363545785D-01
    2.104789018631D-07 1.547081558965D-02 4.913657903671D-06 5.153683982849D+03
    8.638400000000D+04-3.352761268616D-08 1.476082675717D+00 2.030283212662D-07
    9.504925794426D-01 2.815937500000D+02-2.293902105659D+00-8.612858760139D-09
   -6.071681481333D-12 1.000000000000D+00 2.195000000000D+03 0.000000000000D+00
    2.000000000000D+00 0.000000000000D+00-1.117587089539D-08 6.200000000000D+01
    7.921800000000D+04 4.000000000000D+00
 8 22  1 30 23 59 44.0-5.423743277788D-05-1.477928890381D-12 0.000000000000D+00
    7.000000000000D+00 1.562187500000D+02 4.241248093579D-09 2.730571118356D+00
    8.171424269676D-06 7.224334985949D-03 7.987022399902D-06 5.153721809387D+03
    8.638400000000D+04-1.527369022369D-07-2.739151301126D+00-1.490116119385D-08
    9.652006378522D-01 2.284062500000D+02 9.202141221547D-02-7.842112369743D-09
    1.853648640478D-10 1.000000000000D+00 2.195000000000D+03 0.000000000000D+00
    2.000000000000D+00 0.000000000000D+00 5.122274160385D-09 7.000000000000D+00
    8.377800000000D+04 4.000000000000D+00
 9 22  1 31  0  0  0.0-3.560953773558D-04 1.364242052659D-12 0.000000000000D+00
    4.500000000000D+01-3.468750000000D+00 4.449471052615D-09 3.074093146742D+00
   -1.173466444016D-07 2.295743790455D-03 1.104734838009D-05 5.153630847931D+03
    8.640000000000D+04-7.264316082001D-08 4.040426113908D-01-3.352761268616D-08
    9.543538975848D-01 1.634375000000D+02 1.870310664804D+00-7.764609141423D-09
    6.750281176306D-10 1.000000000000D+00 2.195000000000D+03 0.000000000000D+00
    2.000000000000D+00 0.000000000000D+00 1.396983861923D-09 4.500000000000D+01
    7.921800000000D+04 4.000000000000D+00
11 22  1 31  0  0  0.0-9.653996676207D-05-3.910827217624D-11 0.000000000000D+00
    9.400000000000D+01-3.665625000000D+01 4.793771108380D-09 2.602013394405D+00
   -1.857057213783D-06 2.908821916208D-04-1.145526766777D-06 5.153766309738D+03
    8.640000000000D+04-6.146728992462D-08-1.615338226578D+00 2.607703208923D-08
    9.615831164708D-01 4.030937500000D+02 2.848664735578D+00-8.644645798482D-09
   -1.503634060966D-10 1.000000000000D+00 2.195000000000D+03 0.000000000000D+00
    2.000000000000D+00 6.300000000000D+01-8.847564458847D-09 8.620000000000D+02
    8.445600000000D+04 4.000000000000D+00
14 22  1 31  1 14 40.0-7.783807814121D-05-4.888534022029D-12 0.000000000000D+00
    1.720000000000D+02 2.043750000000D+01 4.509830709694D-09-1.750176483133D-01
    1.069158315659D-06 1.366048469208D-03 1.083128154278D-05 5.153650815964D+03
    9.088000000000D+04 4.284083843231D-08 2.557779138979D+00 4.842877388000D-08
    9.540389342482D-01 1.677812500000D+02 3.037212699620D+00-7.848898366693D-09
   -5.757382675241D-10 1.000000000000D+00 2.195000000000D+03 0.000000000000D+00
    2.000000000000D+00 0.000000000000D+00-7.450580596924D-09 9.400000000000D+02
    8.569800000000D+04 4.000000000000D+00
16 22  1 31  0  0  0.0-4.630088806152D-04-5.115907697473D-12 0.000000000000D+00
    3.900000000000D+01 2.696875000000D+01 4.149815713624D-09-2.726491521133D+00
    1.151114702225D-06 1.271079177968D-02 1.202151179314D-05 5.153598876953D+03
    8.640000000000D+04 1.862645149231D-08 2.607468503278D+00-2.048909664154D-07
    9.706266668395D-01 1.525312500000D+02 7.008882210934D-01-7.501741049055D-09
   -5.332364971548D-10 1.000000000000D+00 2.195000000000D+03 0.000000000000D+00
    2.000000000000D+00 0.000000000000D+00-1.024454832077D-08 3.900000000000D+01
    7.921800000000D+04 4.000000000000D+00
21 22  1 31  0  0  0.0 1.571723259985D-04 6.821210263297D-13 0.000000000000D+00
    6.300000000000D+01 2.103125000000D+01 4.813414783761D-09 2.811593573678D+00
    1.186504960060D-06 2.456004742999D-02-1.808628439903D-06 5.153594604492D+03
    8.640000000000D+04 4.023313522339D-07-1.750020189354D+00 3.669410943985D-07
    9.590693243555D-01 4.107500000000D+02-1.015938545758D+00-8.317132156224D-09
   -8.643217167545D-11 1.000000000000D+00 2.195000000000D+03 0.000000000000D+00
    2.800000000000D+00 0.000000000000D+00-1.024454832077D-08 6.300000000000D+01
    7.921800000000D+04 4.000000000000D+00
26 22  1 31  0  0  0.0 1.790570095181D-04 3.296918293927D-12 0.000000000000D+00
    5.800000000000D+01 1.593750000000D+00 4.987707758048D-09-1.764782432786D+00
   -1.639127731323D-07 6.844451534562D-03 1.062080264091D-05 5.153691675186D+03
    8.640000000000D+04-1.303851604462D-08 2.465653468981D+00-1.043081283569D-07
    9.388241868472D-01 1.610312500000D+02 3.576055597527D-01-8.039977754488D-09
   -5.768097407267D-10 1.000000000000D+00 2.195000000000D+03 0.000000000000D+00
    2.000000000000D+00 0.000000000000D+00 6.984919309616D-09 5.800000000000D+01
    7.921800000000D+04 4.000000000000D+00
27 22  1 31  0  0  0.0 9.664101526141D-05 1.864464138635D-11 0.000000000000D+00
    1.100000000000D+02 1.584687500000D+02 4.080527113190D-09 2.675754609474D+00
    8.163973689079D-06 1.013277040329D-02 8.542090654373D-06 5.153654035568D+03
    8.640000000000D+04-1.098960638046D-07-2.719860719128D+00-1.750886440277D-07
    9.738850784055D-01 2.198750000000D+02 6.331953237897D-01-7.705678115281D-09
    2.032227507576D-10 1.000000000000D+00 2.195000000000D+03 0.000000000000D+00
    2.000000000000D+00 0.000000000000D+00 1.396983861923D-09 1.100000000000D+02
    8.547600000000D+04 4.000000000000D+00
30 22  1 31  0  0  0.0-5.102958530188D-04-2.501110429876D-12 0.000000000000D+00
    1.050000000000D+02-3.500000000000D+00 5.615233897031D-09-1.869943479680D-01
   -1.098960638046D-07 5.451671779156D-03 4.634261131287D-06 5.153572080612D+03
    8.640000000000D+04 2.793967723846D-08 1.489461621849D+00 8.568167686462D-08
    9.356604948381D-01 2.760625000000D+02-2.750969462886D+00-8.571428462972D-09
   -3.607293115380D-11 1.000000000000D+00 2.195000000000D+03 0.000000000000D+00
    2.000000000000D+00 0.000000000000D+00 3.725290298462D-09 1.050000000000D+02
    8.019600000000D+04 4.000000000000D+00
31 22  1 31  0  0  0.0-1.624515280128D-04-1.818989403546D-12 0.000000000000D+00
    2.700000000000D+01 1.781250000000D+00 5.186644615996D-09-6.679477385901D-01
    2.905726432800D-07 1.046910043806D-02 4.542991518974D-06 5.153667245865D+03
    8.640000000000D+04 1.657754182816D-07 1.494121371421D+00 2.421438694000D-08
    9.547252695797D-01 2.831250000000D+02 3.725140540313D-01-8.355348033783D-09
    8.464638300447D-11 1.000000000000D+00 2.195000000000D+03 0.000000000000D+00
    2.000000000000D+00 0.000000000000D+00-1.350417733192D-08 2.700000000000D+01
    7.921800000000D+04 4.000000000000D+00
